{
  "type": "FeatureCollection",
  "features": [
    {
      "type": "Feature",
      "properties": {
        "norad_id": 66590,
        "name": "STARLINK-35429",
        "group": "last-30-days",
        "lat": 32.79450139620862,
        "lon": -24.71109980067267,
        "alt_km": 411.10409129994423,
        "timestamp": "2025-12-11T15:53:38.293732+00:00",
        "meta_object_name": "STARLINK-35429",
        "meta_object_id": "2025-270C",
        "meta_epoch": "2025-12-11T06:00:02.999808",
        "meta_mean_motion": 15.50671936,
        "meta_eccentricity": 0.00021479,
        "meta_inclination": 42.9999,
        "meta_ra_of_asc_node": 201.4453,
        "meta_arg_of_pericenter": 261.3718,
        "meta_mean_anomaly": 82.2063,
        "meta_ephemeris_type": 0,
        "meta_classification_type": "U",
        "meta_norad_cat_id": 66590,
        "meta_element_set_no": 999,
        "meta_rev_at_epoch": 426,
        "meta_bstar": -0.003515855,
        "meta_mean_motion_dot": -0.00202056,
        "meta_mean_motion_ddot": 0,
        "tle_line1": "1 66590U 25270C   25345.25003472 -.00202056  00000+0 -35159-2 0  9995",
        "tle_line2": "2 66590  42.9999 201.4453 0002147 261.3718  82.2063 15.50671936  4267"
      },
      "geometry": {
        "type": "Point",
        "coordinates": [
          -24.71109980067267,
          32.79450139620862
        ]
      }
    },
    {
      "type": "Feature",
      "properties": {
        "norad_id": 66591,
        "name": "STARLINK-36058",
        "group": "last-30-days",
        "lat": 30.844983071492482,
        "lon": -20.832204806870223,
        "alt_km": 411.333042367105,
        "timestamp": "2025-12-11T15:53:38.293741+00:00",
        "meta_object_name": "STARLINK-36058",
        "meta_object_id": "2025-270D",
        "meta_epoch": "2025-12-11T06:00:02.999808",
        "meta_mean_motion": 15.50660842,
        "meta_eccentricity": 0.00020411,
        "meta_inclination": 43,
        "meta_ra_of_asc_node": 201.4355,
        "meta_arg_of_pericenter": 264.2512,
        "meta_mean_anomaly": 83.162,
        "meta_ephemeris_type": 0,
        "meta_classification_type": "U",
        "meta_norad_cat_id": 66591,
        "meta_element_set_no": 999,
        "meta_rev_at_epoch": 416,
        "meta_bstar": -0.003167954,
        "meta_mean_motion_dot": -0.00182472,
        "meta_mean_motion_ddot": 0,
        "tle_line1": "1 66591U 25270D   25345.25003472 -.00182472  00000+0 -31680-2 0  9990",
        "tle_line2": "2 66591  43.0000 201.4355 0002041 264.2512  83.1620 15.50660842  4163"
      },
      "geometry": {
        "type": "Point",
        "coordinates": [
          -20.832204806870223,
          30.844983071492482
        ]
      }
    },
    {
      "type": "Feature",
      "properties": {
        "norad_id": 66592,
        "name": "STARLINK-36066",
        "group": "last-30-days",
        "lat": 29.82713494777397,
        "lon": -18.9529926128618,
        "alt_km": 411.3840601371767,
        "timestamp": "2025-12-11T15:53:38.293751+00:00",
        "meta_object_name": "STARLINK-36066",
        "meta_object_id": "2025-270E",
        "meta_epoch": "2025-12-11T06:00:02.999808",
        "meta_mean_motion": 15.50656079,
        "meta_eccentricity": 0.00020354,
        "meta_inclination": 42.9998,
        "meta_ra_of_asc_node": 201.4303,
        "meta_arg_of_pericenter": 260.2523,
        "meta_mean_anomaly": 89.0815,
        "meta_ephemeris_type": 0,
        "meta_classification_type": "U",
        "meta_norad_cat_id": 66592,
        "meta_element_set_no": 999,
        "meta_rev_at_epoch": 406,
        "meta_bstar": -0.0030418946,
        "meta_mean_motion_dot": -0.00175352,
        "meta_mean_motion_ddot": 0,
        "tle_line1": "1 66592U 25270E   25345.25003472 -.00175352  00000+0 -30419-2 0  9999",
        "tle_line2": "2 66592  42.9998 201.4303 0002035 260.2523  89.0815 15.50656079  4069"
      },
      "geometry": {
        "type": "Point",
        "coordinates": [
          -18.9529926128618,
          29.82713494777397
        ]
      }
    },
    {
      "type": "Feature",
      "properties": {
        "norad_id": 66593,
        "name": "STARLINK-36031",
        "group": "last-30-days",
        "lat": 28.779363576814244,
        "lon": -17.105314797389223,
        "alt_km": 411.1608879570658,
        "timestamp": "2025-12-11T15:53:38.293763+00:00",
        "meta_object_name": "STARLINK-36031",
        "meta_object_id": "2025-270F",
        "meta_epoch": "2025-12-11T06:00:02.999808",
        "meta_mean_motion": 15.50690941,
        "meta_eccentricity": 0.00018649,
        "meta_inclination": 42.9998,
        "meta_ra_of_asc_node": 201.4254,
        "meta_arg_of_pericenter": 249.2244,
        "meta_mean_anomaly": 101.9892,
        "meta_ephemeris_type": 0,
        "meta_classification_type": "U",
        "meta_norad_cat_id": 66593,
        "meta_element_set_no": 999,
        "meta_rev_at_epoch": 416,
        "meta_bstar": -0.0032320646,
        "meta_mean_motion_dot": -0.00186264,
        "meta_mean_motion_ddot": 0,
        "tle_line1": "1 66593U 25270F   25345.25003472 -.00186264  00000+0 -32321-2 0  9998",
        "tle_line2": "2 66593  42.9998 201.4254 0001864 249.2244 101.9892 15.50690941  4167"
      },
      "geometry": {
        "type": "Point",
        "coordinates": [
          -17.105314797389223,
          28.779363576814244
        ]
      }
    },
    {
      "type": "Feature",
      "properties": {
        "norad_id": 66594,
        "name": "STARLINK-36032",
        "group": "last-30-days",
        "lat": 27.714162700499855,
        "lon": -15.306093821586536,
        "alt_km": 411.73450792460426,
        "timestamp": "2025-12-11T15:53:38.293776+00:00",
        "meta_object_name": "STARLINK-36032",
        "meta_object_id": "2025-270G",
        "meta_epoch": "2025-12-11T06:00:02.999808",
        "meta_mean_motion": 15.50662973,
        "meta_eccentricity": 0.00021212,
        "meta_inclination": 43,
        "meta_ra_of_asc_node": 201.421,
        "meta_arg_of_pericenter": 262.343,
        "meta_mean_anomaly": 90.8223,
        "meta_ephemeris_type": 0,
        "meta_classification_type": "U",
        "meta_norad_cat_id": 66594,
        "meta_element_set_no": 999,
        "meta_rev_at_epoch": 389,
        "meta_bstar": -0.0032152416,
        "meta_mean_motion_dot": -0.00185144,
        "meta_mean_motion_ddot": 0,
        "tle_line1": "1 66594U 25270G   25345.25003472 -.00185144  00000+0 -32152-2 0  9997",
        "tle_line2": "2 66594  43.0000 201.4210 0002121 262.3430  90.8223 15.50662973  3893"
      },
      "geometry": {
        "type": "Point",
        "coordinates": [
          -15.306093821586536,
          27.714162700499855
        ]
      }
    },
    {
      "type": "Feature",
      "properties": {
        "norad_id": 66595,
        "name": "STARLINK-35711",
        "group": "last-30-days",
        "lat": 26.564802610137654,
        "lon": -13.446583268298758,
        "alt_km": 411.5208496009627,
        "timestamp": "2025-12-11T15:53:38.293786+00:00",
        "meta_object_name": "STARLINK-35711",
        "meta_object_id": "2025-270H",
        "meta_epoch": "2025-12-11T06:00:02.999808",
        "meta_mean_motion": 15.50935924,
        "meta_eccentricity": 0.00014773,
        "meta_inclination": 42.9997,
        "meta_ra_of_asc_node": 201.4159,
        "meta_arg_of_pericenter": 250.4337,
        "meta_mean_anomaly": 104.5649,
        "meta_ephemeris_type": 0,
        "meta_classification_type": "U",
        "meta_norad_cat_id": 66595,
        "meta_element_set_no": 999,
        "meta_rev_at_epoch": 426,
        "meta_bstar": -0.0094465182,
        "meta_mean_motion_dot": -0.00525542,
        "meta_mean_motion_ddot": 0,
        "tle_line1": "1 66595U 25270H   25345.25003472 -.00525542  00000+0 -94465-2 0  9993",
        "tle_line2": "2 66595  42.9997 201.4159 0001477 250.4337 104.5649 15.50935924  4262"
      },
      "geometry": {
        "type": "Point",
        "coordinates": [
          -13.446583268298758,
          26.564802610137654
        ]
      }
    },
    {
      "type": "Feature",
      "properties": {
        "norad_id": 66596,
        "name": "STARLINK-35811",
        "group": "last-30-days",
        "lat": 25.654177675037815,
        "lon": -12.026090958684065,
        "alt_km": 413.7865328225216,
        "timestamp": "2025-12-11T15:53:38.293796+00:00",
        "meta_object_name": "STARLINK-35811",
        "meta_object_id": "2025-270J",
        "meta_epoch": "2025-12-11T06:00:02.999808",
        "meta_mean_motion": 15.50947308,
        "meta_eccentricity": 0.00024145,
        "meta_inclination": 42.9997,
        "meta_ra_of_asc_node": 201.4103,
        "meta_arg_of_pericenter": 265.2211,
        "meta_mean_anomaly": 91.7277,
        "meta_ephemeris_type": 0,
        "meta_classification_type": "U",
        "meta_norad_cat_id": 66596,
        "meta_element_set_no": 999,
        "meta_rev_at_epoch": 426,
        "meta_bstar": -0.020375291,
        "meta_mean_motion_dot": -0.01096135,
        "meta_mean_motion_ddot": 0,
        "tle_line1": "1 66596U 25270J   25345.25003472 -.01096135  00000+0 -20375-1 0  9994",
        "tle_line2": "2 66596  42.9997 201.4103 0002414 265.2211  91.7277 15.50947308  4262"
      },
      "geometry": {
        "type": "Point",
        "coordinates": [
          -12.026090958684065,
          25.654177675037815
        ]
      }
    }
  ]
}